FENGYUN 1C DEB          
1 30079U 99025QG  26088.12104750  .00000218  00000+0  16975-3 0  9999
2 30079  99.0078 147.3462 0085112   6.2131  47.1239 14.00855925980272
FENGYUN 1C DEB          
1 30080U 99025QH  26088.19582947  .00000266  00000+0  15775-3 0  9996
2 30080  98.7130  70.4556 0133588 117.9019 263.4027 14.10921937987391
FENGYUN 1C DEB          
1 30081U 99025QJ  26087.90185006  .00000267  00000+0  21135-3 0  9998
2 30081  98.9301  86.3199 0076699  45.7416  14.9918 13.98395188978386
FENGYUN 1C DEB          
1 30082U 99025QK  26087.85659272  .00037045  00000+0  14955-2 0  9999
2 30082  98.8249  38.2338 0059406 168.7130 191.5451 15.23042760 29043
FENGYUN 1C DEB          
1 30086U 99025QP  26088.08713484  .00000547  00000+0  36742-3 0  9991
2 30086  98.8955 124.6085 0061325 196.8453 187.9060 14.03957118981886
FENGYUN 1C DEB          
1 30087U 99025QQ  26087.86285958  .00000957  00000+0  25713-3 0  9998
2 30087  98.3660 122.1741 0229133 164.0896  15.4332 14.35958566  2163
FENGYUN 1C DEB          
1 30088U 99025QR  26087.50734841  .00001320  00000+0  37389-3 0  9997
2 30088  98.3676  73.6999 0199821 291.5422 193.7919 14.36245772  1885
FENGYUN 1C DEB          
1 30089U 99025QS  26087.68870994  .00000531  00000+0  21570-3 0  9995
2 30089  98.8998   0.5366 0072737 261.9122 116.6689 14.30465167999946
FENGYUN 1C DEB          
1 30090U 99025QT  26087.79738866  .00001065  00000+0  43031-3 0  9999
2 30090  99.4166 274.2985 0057869 167.2887 209.3805 14.29330503997855
FENGYUN 1C DEB          
1 30092U 99025QV  26087.29632150  .00001230  00000+0  39462-3 0  9992
2 30092  98.9291 275.8922 0081736 298.9189 240.4314 14.39530938  2599
FENGYUN 1C DEB          
1 30093U 99025QW  26088.21883693  .00003177  00000+0  90931-3 0  9996
2 30093  98.8592 332.2374 0069997  19.9509 103.2697 14.44349783  3418
FENGYUN 1C DEB          
1 30095U 99025QY  26088.07240203  .00024803  00000+0  22730-2 0  9996
2 30095  99.2260  30.6879 0155414 358.1014   1.9587 14.86099551  9111
FENGYUN 1C DEB          
1 30096U 99025QZ  26088.17096779  .00000776  00000+0  29818-3 0  9993
2 30096  99.1349 178.0526 0078222 284.2917  74.9588 14.31891496   656
FENGYUN 1C DEB          
1 30099U 99025RC  26088.14049544  .00000569  00000+0  25114-3 0  9996
2 30099  98.5232 162.6817 0060461 294.3204  94.8032 14.26100138997067
FENGYUN 1C DEB          
1 30102U 99025RF  26087.90570030  .00000652  00000+0  28123-3 0  9999
2 30102  98.3801  95.4762 0142485  50.1115  16.3921 14.22261495994670
FENGYUN 1C DEB          
1 30103U 99025RG  26087.90624856  .00000909  00000+0  39969-3 0  9991
2 30103  99.2573  80.0743 0062954 176.0871 255.0001 14.25152568994310
