[{"OBJECT_NAME":"FENGYUN 1C DEB","OBJECT_ID":"1999-025QG","EPOCH":"2026-03-29T02:54:18.504000","MEAN_MOTION":14.00855925,"ECCENTRICITY":0.0085112,"INCLINATION":99.0078,"RA_OF_ASC_NODE":147.3462,"ARG_OF_PERICENTER":6.2131,"MEAN_ANOMALY":47.1239,"EPHEMERIS_TYPE":0,"CLASSIFICATION_TYPE":"U","NORAD_CAT_ID":30079,"ELEMENT_SET_NO":999,"REV_AT_EPOCH":98027,"BSTAR":0.00016975,"MEAN_MOTION_DOT":2.18e-6,"MEAN_MOTION_DDOT":0},{"OBJECT_NAME":"FENGYUN 1C DEB","OBJECT_ID":"1999-025QH","EPOCH":"2026-03-29T04:41:59.666208","MEAN_MOTION":14.10921937,"ECCENTRICITY":0.0133588,"INCLINATION":98.713,"RA_OF_ASC_NODE":70.4556,"ARG_OF_PERICENTER":117.9019,"MEAN_ANOMALY":263.4027,"EPHEMERIS_TYPE":0,"CLASSIFICATION_TYPE":"U","NORAD_CAT_ID":30080,"ELEMENT_SET_NO":999,"REV_AT_EPOCH":98739,"BSTAR":0.00015775,"MEAN_MOTION_DOT":2.66e-6,"MEAN_MOTION_DDOT":0},{"OBJECT_NAME":"FENGYUN 1C DEB","OBJECT_ID":"1999-025QJ","EPOCH":"2026-03-28T21:38:39.845184","MEAN_MOTION":13.98395188,"ECCENTRICITY":0.0076699,"INCLINATION":98.9301,"RA_OF_ASC_NODE":86.3199,"ARG_OF_PERICENTER":45.7416,"MEAN_ANOMALY":14.9918,"EPHEMERIS_TYPE":0,"CLASSIFICATION_TYPE":"U","NORAD_CAT_ID":30081,"ELEMENT_SET_NO":999,"REV_AT_EPOCH":97838,"BSTAR":0.00021135,"MEAN_MOTION_DOT":2.67e-6,"MEAN_MOTION_DDOT":0},{"OBJECT_NAME":"FENGYUN 1C DEB","OBJECT_ID":"1999-025QK","EPOCH":"2026-03-28T20:33:29.611008","MEAN_MOTION":15.2304276,"ECCENTRICITY":0.00594064,"INCLINATION":98.8249,"RA_OF_ASC_NODE":38.2338,"ARG_OF_PERICENTER":168.713,"MEAN_ANOMALY":191.5451,"EPHEMERIS_TYPE":0,"CLASSIFICATION_TYPE":"U","NORAD_CAT_ID":30082,"ELEMENT_SET_NO":999,"REV_AT_EPOCH":2904,"BSTAR":0.0014954878,"MEAN_MOTION_DOT":0.00037045,"MEAN_MOTION_DDOT":0},{"OBJECT_NAME":"FENGYUN 1C DEB","OBJECT_ID":"1999-025QP","EPOCH":"2026-03-29T02:05:28.450176","MEAN_MOTION":14.03957118,"ECCENTRICITY":0.0061325,"INCLINATION":98.8955,"RA_OF_ASC_NODE":124.6085,"ARG_OF_PERICENTER":196.8453,"MEAN_ANOMALY":187.906,"EPHEMERIS_TYPE":0,"CLASSIFICATION_TYPE":"U","NORAD_CAT_ID":30086,"ELEMENT_SET_NO":999,"REV_AT_EPOCH":98188,"BSTAR":0.00036742,"MEAN_MOTION_DOT":5.47e-6,"MEAN_MOTION_DDOT":0},{"OBJECT_NAME":"FENGYUN 1C DEB","OBJECT_ID":"1999-025QQ","EPOCH":"2026-03-28T20:42:31.067712","MEAN_MOTION":14.35958566,"ECCENTRICITY":0.02291333,"INCLINATION":98.366,"RA_OF_ASC_NODE":122.1741,"ARG_OF_PERICENTER":164.0896,"MEAN_ANOMALY":15.4332,"EPHEMERIS_TYPE":0,"CLASSIFICATION_TYPE":"U","NORAD_CAT_ID":30087,"ELEMENT_SET_NO":999,"REV_AT_EPOCH":216,"BSTAR":0.00025713418,"MEAN_MOTION_DOT":9.57e-6,"MEAN_MOTION_DDOT":0},{"OBJECT_NAME":"FENGYUN 1C DEB","OBJECT_ID":"1999-025QR","EPOCH":"2026-03-28T12:10:34.902624","MEAN_MOTION":14.36245772,"ECCENTRICITY":0.0199821,"INCLINATION":98.3676,"RA_OF_ASC_NODE":73.6999,"ARG_OF_PERICENTER":291.5422,"MEAN_ANOMALY":193.7919,"EPHEMERIS_TYPE":0,"CLASSIFICATION_TYPE":"U","NORAD_CAT_ID":30088,"ELEMENT_SET_NO":999,"REV_AT_EPOCH":188,"BSTAR":0.00037389,"MEAN_MOTION_DOT":1.32e-5,"MEAN_MOTION_DDOT":0},{"OBJECT_NAME":"FENGYUN 1C DEB","OBJECT_ID":"1999-025QS","EPOCH":"2026-03-28T16:31:44.538816","MEAN_MOTION":14.30465167,"ECCENTRICITY":0.00727379,"INCLINATION":98.8998,"RA_OF_ASC_NODE":0.5366,"ARG_OF_PERICENTER":261.9122,"MEAN_ANOMALY":116.6689,"EPHEMERIS_TYPE":0,"CLASSIFICATION_TYPE":"U","NORAD_CAT_ID":30089,"ELEMENT_SET_NO":999,"REV_AT_EPOCH":99994,"BSTAR":0.00021569842,"MEAN_MOTION_DOT":5.31e-6,"MEAN_MOTION_DDOT":0},{"OBJECT_NAME":"FENGYUN 1C DEB","OBJECT_ID":"1999-025QT","EPOCH":"2026-03-28T19:08:14.380224","MEAN_MOTION":14.29330503,"ECCENTRICITY":0.00578694,"INCLINATION":99.4166,"RA_OF_ASC_NODE":274.2985,"ARG_OF_PERICENTER":167.2887,"MEAN_ANOMALY":209.3805,"EPHEMERIS_TYPE":0,"CLASSIFICATION_TYPE":"U","NORAD_CAT_ID":30090,"ELEMENT_SET_NO":999,"REV_AT_EPOCH":99785,"BSTAR":0.00043030987,"MEAN_MOTION_DOT":1.065e-5,"MEAN_MOTION_DDOT":0},{"OBJECT_NAME":"FENGYUN 1C DEB","OBJECT_ID":"1999-025QV","EPOCH":"2026-03-28T07:06:42.177600","MEAN_MOTION":14.39530938,"ECCENTRICITY":0.0081736,"INCLINATION":98.9291,"RA_OF_ASC_NODE":275.8922,"ARG_OF_PERICENTER":298.9189,"MEAN_ANOMALY":240.4314,"EPHEMERIS_TYPE":0,"CLASSIFICATION_TYPE":"U","NORAD_CAT_ID":30092,"ELEMENT_SET_NO":999,"REV_AT_EPOCH":259,"BSTAR":0.00039462,"MEAN_MOTION_DOT":1.23e-5,"MEAN_MOTION_DDOT":0},{"OBJECT_NAME":"FENGYUN 1C DEB","OBJECT_ID":"1999-025QW","EPOCH":"2026-03-29T05:15:07.510752","MEAN_MOTION":14.44349783,"ECCENTRICITY":0.0069997,"INCLINATION":98.8592,"RA_OF_ASC_NODE":332.2374,"ARG_OF_PERICENTER":19.9509,"MEAN_ANOMALY":103.2697,"EPHEMERIS_TYPE":0,"CLASSIFICATION_TYPE":"U","NORAD_CAT_ID":30093,"ELEMENT_SET_NO":999,"REV_AT_EPOCH":341,"BSTAR":0.00090931,"MEAN_MOTION_DOT":3.177e-5,"MEAN_MOTION_DDOT":0},{"OBJECT_NAME":"FENGYUN 1C DEB","OBJECT_ID":"1999-025QY","EPOCH":"2026-03-29T01:44:15.535392","MEAN_MOTION":14.86099551,"ECCENTRICITY":0.0155414,"INCLINATION":99.226,"RA_OF_ASC_NODE":30.6879,"ARG_OF_PERICENTER":358.1014,"MEAN_ANOMALY":1.9587,"EPHEMERIS_TYPE":0,"CLASSIFICATION_TYPE":"U","NORAD_CAT_ID":30095,"ELEMENT_SET_NO":999,"REV_AT_EPOCH":911,"BSTAR":0.002273,"MEAN_MOTION_DOT":0.00024803,"MEAN_MOTION_DDOT":0},{"OBJECT_NAME":"FENGYUN 1C DEB","OBJECT_ID":"1999-025QZ","EPOCH":"2026-03-29T04:06:11.617056","MEAN_MOTION":14.31891496,"ECCENTRICITY":0.0078222,"INCLINATION":99.1349,"RA_OF_ASC_NODE":178.0526,"ARG_OF_PERICENTER":284.2917,"MEAN_ANOMALY":74.9588,"EPHEMERIS_TYPE":0,"CLASSIFICATION_TYPE":"U","NORAD_CAT_ID":30096,"ELEMENT_SET_NO":999,"REV_AT_EPOCH":65,"BSTAR":0.00029818,"MEAN_MOTION_DOT":7.76e-6,"MEAN_MOTION_DDOT":0},{"OBJECT_NAME":"FENGYUN 1C DEB","OBJECT_ID":"1999-025RC","EPOCH":"2026-03-29T03:22:18.806016","MEAN_MOTION":14.26100138,"ECCENTRICITY":0.0060461,"INCLINATION":98.5232,"RA_OF_ASC_NODE":162.6817,"ARG_OF_PERICENTER":294.3204,"MEAN_ANOMALY":94.8032,"EPHEMERIS_TYPE":0,"CLASSIFICATION_TYPE":"U","NORAD_CAT_ID":30099,"ELEMENT_SET_NO":999,"REV_AT_EPOCH":99706,"BSTAR":0.00025114,"MEAN_MOTION_DOT":5.69e-6,"MEAN_MOTION_DDOT":0},{"OBJECT_NAME":"FENGYUN 1C DEB","OBJECT_ID":"1999-025RF","EPOCH":"2026-03-28T21:44:12.505920","MEAN_MOTION":14.22261495,"ECCENTRICITY":0.0142485,"INCLINATION":98.3801,"RA_OF_ASC_NODE":95.4762,"ARG_OF_PERICENTER":50.1115,"MEAN_ANOMALY":16.3921,"EPHEMERIS_TYPE":0,"CLASSIFICATION_TYPE":"U","NORAD_CAT_ID":30102,"ELEMENT_SET_NO":999,"REV_AT_EPOCH":99467,"BSTAR":0.00028123,"MEAN_MOTION_DOT":6.52e-6,"MEAN_MOTION_DDOT":0},{"OBJECT_NAME":"FENGYUN 1C DEB","OBJECT_ID":"1999-025RG","EPOCH":"2026-03-28T21:44:59.875584","MEAN_MOTION":14.25152568,"ECCENTRICITY":0.0062954,"INCLINATION":99.2573,"RA_OF_ASC_NODE":80.0743,"ARG_OF_PERICENTER":176.0871,"MEAN_ANOMALY":255.0001,"EPHEMERIS_TYPE":0,"CLASSIFICATION_TYPE":"U","NORAD_CAT_ID":30103,"ELEMENT_SET_NO":999,"REV_AT_EPOCH":99431,"BSTAR":0.00039969,"MEAN_MOTION_DOT":9.09e-6,"MEAN_MOTION_DDOT":0}]
